[{"OBJECT_NAME":"ONEWEB-0235","OBJECT_ID":"2021-045E","EPOCH":"2025-09-30T03:56:40.328160","MEAN_MOTION":13.1555067,"ECCENTRICITY":0.0001498,"INCLINATION":87.8999,"RA_OF_ASC_NODE":311.0763,"ARG_OF_PERICENTER":107.747,"MEAN_ANOMALY":252.3824,"EPHEMERIS_TYPE":0,"CLASSIFICATION_TYPE":"U","NORAD_CAT_ID":48771,"ELEMENT_SET_NO":999,"REV_AT_EPOCH":21019,"BSTAR":0.00022450593,"MEAN_MOTION_DOT":9.7e-7,"MEAN_MOTION_DDOT":0},{"OBJECT_NAME":"ONEWEB-0242","OBJECT_ID":"2021-045F","EPOCH":"2025-09-30T01:57:59.510592","MEAN_MOTION":13.15547755,"ECCENTRICITY":0.00016817,"INCLINATION":87.9008,"RA_OF_ASC_NODE":311.0801,"ARG_OF_PERICENTER":95.5841,"MEAN_ANOMALY":264.5481,"EPHEMERIS_TYPE":0,"CLASSIFICATION_TYPE":"U","NORAD_CAT_ID":48772,"ELEMENT_SET_NO":999,"REV_AT_EPOCH":21022,"BSTAR":-0.00041179336,"MEAN_MOTION_DOT":-1.42e-6,"MEAN_MOTION_DDOT":0},{"OBJECT_NAME":"ONEWEB-0241","OBJECT_ID":"2021-045G","EPOCH":"2025-09-30T01:39:44.749152","MEAN_MOTION":13.15549711,"ECCENTRICITY":0.00017943,"INCLINATION":87.8992,"RA_OF_ASC_NODE":311.1284,"ARG_OF_PERICENTER":109.6605,"MEAN_ANOMALY":250.472,"EPHEMERIS_TYPE":0,"CLASSIFICATION_TYPE":"U","NORAD_CAT_ID":48773,"ELEMENT_SET_NO":999,"REV_AT_EPOCH":21013,"BSTAR":-0.00012208634,"MEAN_MOTION_DOT":-3.3e-7,"MEAN_MOTION_DDOT":0},{"OBJECT_NAME":"ONEWEB-0243","OBJECT_ID":"2021-045H","EPOCH":"2025-09-30T00:35:51.802368","MEAN_MOTION":13.15546293,"ECCENTRICITY":0.00014483,"INCLINATION":87.9005,"RA_OF_ASC_NODE":311.1412,"ARG_OF_PERICENTER":100.5196,"MEAN_ANOMALY":259.6098,"EPHEMERIS_TYPE":0,"CLASSIFICATION_TYPE":"U","NORAD_CAT_ID":48774,"ELEMENT_SET_NO":999,"REV_AT_EPOCH":21015,"BSTAR":0.00036483967,"MEAN_MOTION_DOT":1.5e-6,"MEAN_MOTION_DDOT":0},{"OBJECT_NAME":"ONEWEB-0222","OBJECT_ID":"2021-045J","EPOCH":"2025-09-30T03:50:58.213536","MEAN_MOTION":13.15547799,"ECCENTRICITY":0.0001765,"INCLINATION":87.9003,"RA_OF_ASC_NODE":311.0665,"ARG_OF_PERICENTER":101.5747,"MEAN_ANOMALY":258.5581,"EPHEMERIS_TYPE":0,"CLASSIFICATION_TYPE":"U","NORAD_CAT_ID":48775,"ELEMENT_SET_NO":999,"REV_AT_EPOCH":21021,"BSTAR":0.00010428555,"MEAN_MOTION_DOT":5.2e-7,"MEAN_MOTION_DDOT":0},{"OBJECT_NAME":"ONEWEB-0244","OBJECT_ID":"2021-045K","EPOCH":"2025-09-30T00:49:32.357856","MEAN_MOTION":13.15546479,"ECCENTRICITY":0.00016641,"INCLINATION":87.9009,"RA_OF_ASC_NODE":311.0746,"ARG_OF_PERICENTER":96.2701,"MEAN_ANOMALY":263.8619,"EPHEMERIS_TYPE":0,"CLASSIFICATION_TYPE":"U","NORAD_CAT_ID":48776,"ELEMENT_SET_NO":999,"REV_AT_EPOCH":21076,"BSTAR":0.00026478256,"MEAN_MOTION_DOT":1.12e-6,"MEAN_MOTION_DDOT":0},{"OBJECT_NAME":"ONEWEB-0247","OBJECT_ID":"2021-045L","EPOCH":"2025-09-30T04:24:02.379168","MEAN_MOTION":13.15548024,"ECCENTRICITY":9.934e-5,"INCLINATION":87.9001,"RA_OF_ASC_NODE":311.1119,"ARG_OF_PERICENTER":118.3464,"MEAN_ANOMALY":241.7767,"EPHEMERIS_TYPE":0,"CLASSIFICATION_TYPE":"U","NORAD_CAT_ID":48777,"ELEMENT_SET_NO":999,"REV_AT_EPOCH":21022,"BSTAR":-1.0488252e-5,"MEAN_MOTION_DOT":9.0e-8,"MEAN_MOTION_DDOT":0},{"OBJECT_NAME":"ONEWEB-0245","OBJECT_ID":"2021-045M","EPOCH":"2025-09-30T02:27:41.160672","MEAN_MOTION":13.15548445,"ECCENTRICITY":0.00019344,"INCLINATION":87.9,"RA_OF_ASC_NODE":311.0919,"ARG_OF_PERICENTER":103.3899,"MEAN_ANOMALY":256.7447,"EPHEMERIS_TYPE":0,"CLASSIFICATION_TYPE":"U","NORAD_CAT_ID":48778,"ELEMENT_SET_NO":999,"REV_AT_EPOCH":21018,"BSTAR":0.0005630967,"MEAN_MOTION_DOT":2.25e-6,"MEAN_MOTION_DDOT":0},{"OBJECT_NAME":"ONEWEB-0229","OBJECT_ID":"2021-045N","EPOCH":"2025-09-30T02:20:49.770528","MEAN_MOTION":13.15547478,"ECCENTRICITY":0.00016761,"INCLINATION":87.8997,"RA_OF_ASC_NODE":311.0922,"ARG_OF_PERICENTER":93.2272,"MEAN_ANOMALY":266.905,"EPHEMERIS_TYPE":0,"CLASSIFICATION_TYPE":"U","NORAD_CAT_ID":48779,"ELEMENT_SET_NO":999,"REV_AT_EPOCH":21021,"BSTAR":0.00047820846,"MEAN_MOTION_DOT":1.93e-6,"MEAN_MOTION_DDOT":0},{"OBJECT_NAME":"ONEWEB-0228","OBJECT_ID":"2021-045P","EPOCH":"2025-09-30T01:19:25.172544","MEAN_MOTION":13.15546687,"ECCENTRICITY":0.00017171,"INCLINATION":87.9003,"RA_OF_ASC_NODE":311.0773,"ARG_OF_PERICENTER":95.163,"MEAN_ANOMALY":264.9697,"EPHEMERIS_TYPE":0,"CLASSIFICATION_TYPE":"U","NORAD_CAT_ID":48780,"ELEMENT_SET_NO":999,"REV_AT_EPOCH":21012,"BSTAR":-0.00027409892,"MEAN_MOTION_DOT":-9.0e-7,"MEAN_MOTION_DDOT":0},{"OBJECT_NAME":"ONEWEB-0232","OBJECT_ID":"2021-045Q","EPOCH":"2025-09-30T04:21:46.719072","MEAN_MOTION":13.15548367,"ECCENTRICITY":0.00017616,"INCLINATION":87.9,"RA_OF_ASC_NODE":311.044,"ARG_OF_PERICENTER":92.8618,"MEAN_ANOMALY":267.2714,"EPHEMERIS_TYPE":0,"CLASSIFICATION_TYPE":"U","NORAD_CAT_ID":48781,"ELEMENT_SET_NO":999,"REV_AT_EPOCH":21046,"BSTAR":0.00015257779,"MEAN_MOTION_DOT":7.0e-7,"MEAN_MOTION_DDOT":0},{"OBJECT_NAME":"ONEWEB-0231","OBJECT_ID":"2021-045R","EPOCH":"2025-09-30T02:00:18.141984","MEAN_MOTION":13.1554686,"ECCENTRICITY":0.00015475,"INCLINATION":87.8993,"RA_OF_ASC_NODE":311.1146,"ARG_OF_PERICENTER":98.5259,"MEAN_ANOMALY":261.6047,"EPHEMERIS_TYPE":0,"CLASSIFICATION_TYPE":"U","NORAD_CAT_ID":48782,"ELEMENT_SET_NO":999,"REV_AT_EPOCH":21014,"BSTAR":0.000118054,"MEAN_MOTION_DOT":5.7e-7,"MEAN_MOTION_DDOT":0},{"OBJECT_NAME":"ONEWEB-0234","OBJECT_ID":"2021-045S","EPOCH":"2025-09-29T14:08:12.353568","MEAN_MOTION":13.15545809,"ECCENTRICITY":0.00027055,"INCLINATION":87.9,"RA_OF_ASC_NODE":311.1833,"ARG_OF_PERICENTER":101.6076,"MEAN_ANOMALY":258.5358,"EPHEMERIS_TYPE":0,"CLASSIFICATION_TYPE":"U","NORAD_CAT_ID":48783,"ELEMENT_SET_NO":999,"REV_AT_EPOCH":21021,"BSTAR":-0.00052332444,"MEAN_MOTION_DOT":-1.84e-6,"MEAN_MOTION_DDOT":0},{"OBJECT_NAME":"ONEWEB-0238","OBJECT_ID":"2021-045T","EPOCH":"2025-09-30T02:55:14.567232","MEAN_MOTION":13.15549959,"ECCENTRICITY":0.00022036,"INCLINATION":87.9,"RA_OF_ASC_NODE":311.072,"ARG_OF_PERICENTER":96.9836,"MEAN_ANOMALY":263.1545,"EPHEMERIS_TYPE":0,"CLASSIFICATION_TYPE":"U","NORAD_CAT_ID":48784,"ELEMENT_SET_NO":999,"REV_AT_EPOCH":21018,"BSTAR":-0.00022296588,"MEAN_MOTION_DOT":-7.1e-7,"MEAN_MOTION_DDOT":0},{"OBJECT_NAME":"ONEWEB-0240","OBJECT_ID":"2021-045U","EPOCH":"2025-09-30T01:36:20.435616","MEAN_MOTION":13.15551388,"ECCENTRICITY":0.00018234,"INCLINATION":87.9003,"RA_OF_ASC_NODE":311.0691,"ARG_OF_PERICENTER":105.0195,"MEAN_ANOMALY":255.1138,"EPHEMERIS_TYPE":0,"CLASSIFICATION_TYPE":"U","NORAD_CAT_ID":48785,"ELEMENT_SET_NO":999,"REV_AT_EPOCH":21020,"BSTAR":-0.00027232325,"MEAN_MOTION_DOT":-9.0e-7,"MEAN_MOTION_DDOT":0},{"OBJECT_NAME":"ONEWEB-0246","OBJECT_ID":"2021-045V","EPOCH":"2025-09-30T03:17:51.436032","MEAN_MOTION":13.15549471,"ECCENTRICITY":0.00016628,"INCLINATION":87.9007,"RA_OF_ASC_NODE":311.068,"ARG_OF_PERICENTER":93.884,"MEAN_ANOMALY":266.248,"EPHEMERIS_TYPE":0,"CLASSIFICATION_TYPE":"U","NORAD_CAT_ID":48786,"ELEMENT_SET_NO":999,"REV_AT_EPOCH":21008,"BSTAR":-0.00061728447,"MEAN_MOTION_DOT":-2.2e-6,"MEAN_MOTION_DDOT":0},{"OBJECT_NAME":"ONEWEB-0210","OBJECT_ID":"2021-045W","EPOCH":"2025-09-30T04:30:52.872480","MEAN_MOTION":13.15549739,"ECCENTRICITY":0.0001123,"INCLINATION":87.9012,"RA_OF_ASC_NODE":311.057,"ARG_OF_PERICENTER":99.9915,"MEAN_ANOMALY":260.1342,"EPHEMERIS_TYPE":0,"CLASSIFICATION_TYPE":"U","NORAD_CAT_ID":48787,"ELEMENT_SET_NO":999,"REV_AT_EPOCH":21013,"BSTAR":3.8660155e-5,"MEAN_MOTION_DOT":2.7e-7,"MEAN_MOTION_DDOT":0}]
