ONEWEB-0235             
1 48771U 21045E   25273.16435565  .00000097  00000+0  22451-3 0  9995
2 48771  87.8999 311.0763 0001498 107.7470 252.3824 13.15550670210190
ONEWEB-0242             
1 48772U 21045F   25273.08193878 -.00000142  00000+0 -41179-3 0  9996
2 48772  87.9008 311.0801 0001681  95.5841 264.5481 13.15547755210224
ONEWEB-0241             
1 48773U 21045G   25273.06926793 -.00000033  00000+0 -12209-3 0  9996
2 48773  87.8992 311.1284 0001794 109.6605 250.4720 13.15549711210136
ONEWEB-0243             
1 48774U 21045H   25273.02490512  .00000150  00000+0  36484-3 0  9997
2 48774  87.9005 311.1412 0001448 100.5196 259.6098 13.15546293210150
ONEWEB-0222             
1 48775U 21045J   25273.16039599  .00000052  00000+0  10429-3 0  9999
2 48775  87.9003 311.0665 0001765 101.5747 258.5581 13.15547799210217
ONEWEB-0244             
1 48776U 21045K   25273.03440229  .00000112  00000+0  26478-3 0  9990
2 48776  87.9009 311.0746 0001664  96.2701 263.8619 13.15546479210767
ONEWEB-0247             
1 48777U 21045L   25273.18336087  .00000009  00000+0 -10488-4 0  9994
2 48777  87.9001 311.1119 0000993 118.3464 241.7767 13.15548024210229
ONEWEB-0245             
1 48778U 21045M   25273.10255973  .00000225  00000+0  56310-3 0  9993
2 48778  87.9000 311.0919 0001934 103.3899 256.7447 13.15548445210181
ONEWEB-0229             
1 48779U 21045N   25273.09779827  .00000193  00000+0  47821-3 0  9992
2 48779  87.8997 311.0922 0001676  93.2272 266.9050 13.15547478210217
ONEWEB-0228             
1 48780U 21045P   25273.05515246 -.00000090  00000+0 -27410-3 0  9993
2 48780  87.9003 311.0773 0001717  95.1630 264.9697 13.15546687210123
ONEWEB-0232             
1 48781U 21045Q   25273.18179073  .00000070  00000+0  15258-3 0  9995
2 48781  87.9000 311.0440 0001761  92.8618 267.2714 13.15548367210461
ONEWEB-0231             
1 48782U 21045R   25273.08354331  .00000057  00000+0  11805-3 0  9996
2 48782  87.8993 311.1146 0001547  98.5259 261.6047 13.15546860210140
ONEWEB-0234             
1 48783U 21045S   25272.58903187 -.00000184  00000+0 -52332-3 0  9993
2 48783  87.9000 311.1833 0002705 101.6076 258.5358 13.15545809210214
ONEWEB-0238             
1 48784U 21045T   25273.12169638 -.00000071  00000+0 -22297-3 0  9992
2 48784  87.9000 311.0720 0002203  96.9836 263.1545 13.15549959210188
ONEWEB-0240             
1 48785U 21045U   25273.06690319 -.00000090  00000+0 -27232-3 0  9996
2 48785  87.9003 311.0691 0001823 105.0195 255.1138 13.15551388210207
ONEWEB-0246             
1 48786U 21045V   25273.13740088 -.00000220  00000+0 -61728-3 0  9997
2 48786  87.9007 311.0680 0001662  93.8840 266.2480 13.15549471210081
ONEWEB-0210             
1 48787U 21045W   25273.18811195  .00000027  00000+0  38660-4 0  9994
2 48787  87.9012 311.0570 0001123  99.9915 260.1342 13.15549739210131
